{
  "type": "FeatureCollection",
  "features": [
    {
      "type": "Feature",
      "properties": {
        "norad_id": 46805,
        "name": "COSMOS 2547 (705K)",
        "group": "glo-ops",
        "lat": -2.958116740579298,
        "lon": 19.759481386649,
        "alt_km": 19119.817575193487,
        "timestamp": "2025-12-23T05:02:12.292027+00:00",
        "meta_object_name": "COSMOS 2547 (705K)",
        "meta_object_id": "2020-075A",
        "meta_epoch": "2025-12-22T00:46:38.571168",
        "meta_mean_motion": 2.13100252,
        "meta_eccentricity": 0.000611,
        "meta_inclination": 64.5967,
        "meta_ra_of_asc_node": 198.3861,
        "meta_arg_of_pericenter": 227.6651,
        "meta_mean_anomaly": 132.3515,
        "meta_ephemeris_type": 0,
        "meta_classification_type": "U",
        "meta_norad_cat_id": 46805,
        "meta_element_set_no": 999,
        "meta_rev_at_epoch": 4013,
        "meta_bstar": 0,
        "meta_mean_motion_dot": 9.6e-07,
        "meta_mean_motion_ddot": 0,
        "tle_line1": "1 46805U 20075A   25356.03239087  .00000096  00000+0  00000+0 0  9993",
        "tle_line2": "2 46805  64.5967 198.3861 0006110 227.6651 132.3515  2.13100252 40139"
      },
      "geometry": {
        "type": "Point",
        "coordinates": [
          19.759481386649,
          -2.958116740579298
        ]
      }
    },
    {
      "type": "Feature",
      "properties": {
        "norad_id": 52984,
        "name": "COSMOS 2557 (706K)",
        "group": "glo-ops",
        "lat": 48.78952526924914,
        "lon": -6.17279007629964,
        "alt_km": 19150.0104896106,
        "timestamp": "2025-12-23T05:02:12.292039+00:00",
        "meta_object_name": "COSMOS 2557 (706K)",
        "meta_object_id": "2022-075A",
        "meta_epoch": "2025-12-22T04:44:33.439200",
        "meta_mean_motion": 2.13102045,
        "meta_eccentricity": 0.00135379,
        "meta_inclination": 64.4045,
        "meta_ra_of_asc_node": 320.7192,
        "meta_arg_of_pericenter": 278.4147,
        "meta_mean_anomaly": 81.4275,
        "meta_ephemeris_type": 0,
        "meta_classification_type": "U",
        "meta_norad_cat_id": 52984,
        "meta_element_set_no": 999,
        "meta_rev_at_epoch": 2694,
        "meta_bstar": 0,
        "meta_mean_motion_dot": -4.3e-07,
        "meta_mean_motion_ddot": 0,
        "tle_line1": "1 52984U 22075A   25356.19760925 -.00000043  00000+0  00000+0 0  9990",
        "tle_line2": "2 52984  64.4045 320.7192 0013537 278.4147  81.4275  2.13102045 26945"
      },
      "geometry": {
        "type": "Point",
        "coordinates": [
          -6.17279007629964,
          48.78952526924914
        ]
      }
    },
    {
      "type": "Feature",
      "properties": {
        "norad_id": 54031,
        "name": "COSMOS 2559 (707K)",
        "group": "glo-ops",
        "lat": -13.76611890125265,
        "lon": 147.50411732426184,
        "alt_km": 19102.890644353683,
        "timestamp": "2025-12-23T05:02:12.292050+00:00",
        "meta_object_name": "COSMOS 2559 (707K)",
        "meta_object_id": "2022-130A",
        "meta_epoch": "2025-12-22T11:39:56.948256",
        "meta_mean_motion": 2.13101308,
        "meta_eccentricity": 0.0011535,
        "meta_inclination": 64.3767,
        "meta_ra_of_asc_node": 320.7983,
        "meta_arg_of_pericenter": 191.7961,
        "meta_mean_anomaly": 168.1737,
        "meta_ephemeris_type": 0,
        "meta_classification_type": "U",
        "meta_norad_cat_id": 54031,
        "meta_element_set_no": 999,
        "meta_rev_at_epoch": 2492,
        "meta_bstar": 0,
        "meta_mean_motion_dot": -4.2e-07,
        "meta_mean_motion_ddot": 0,
        "tle_line1": "1 54031U 22130A   25356.48607579 -.00000042  00000+0  00000+0 0  9993",
        "tle_line2": "2 54031  64.3767 320.7983 0011535 191.7961 168.1737  2.13101308 24928"
      },
      "geometry": {
        "type": "Point",
        "coordinates": [
          147.50411732426184,
          -13.76611890125265
        ]
      }
    },
    {
      "type": "Feature",
      "properties": {
        "norad_id": 54377,
        "name": "COSMOS 2564 (761)",
        "group": "glo-ops",
        "lat": -39.83187820896285,
        "lon": 175.3477953978032,
        "alt_km": 19142.72893593178,
        "timestamp": "2025-12-23T05:02:12.292061+00:00",
        "meta_object_name": "COSMOS 2564 (761)",
        "meta_object_id": "2022-161A",
        "meta_epoch": "2025-12-22T07:55:31.540224",
        "meta_mean_motion": 2.13102045,
        "meta_eccentricity": 0.00085467,
        "meta_inclination": 64.7388,
        "meta_ra_of_asc_node": 198.5803,
        "meta_arg_of_pericenter": 203.7218,
        "meta_mean_anomaly": 156.3061,
        "meta_ephemeris_type": 0,
        "meta_classification_type": "U",
        "meta_norad_cat_id": 54377,
        "meta_element_set_no": 999,
        "meta_rev_at_epoch": 2386,
        "meta_bstar": 0,
        "meta_mean_motion_dot": 9.5e-07,
        "meta_mean_motion_ddot": 0,
        "tle_line1": "1 54377U 22161A   25356.33022616  .00000095  00000+0  00000+0 0  9994",
        "tle_line2": "2 54377  64.7388 198.5803 0008546 203.7218 156.3061  2.13102045 23863"
      },
      "geometry": {
        "type": "Point",
        "coordinates": [
          175.3477953978032,
          -39.83187820896285
        ]
      }
    },
    {
      "type": "Feature",
      "properties": {
        "norad_id": 57517,
        "name": "COSMOS 2569 (703K)",
        "group": "glo-ops",
        "lat": -48.42038448748152,
        "lon": 47.22092964966761,
        "alt_km": 19109.01356440289,
        "timestamp": "2025-12-23T05:02:12.292077+00:00",
        "meta_object_name": "COSMOS 2569 (703K)",
        "meta_object_id": "2023-114A",
        "meta_epoch": "2025-12-22T08:14:44.480832",
        "meta_mean_motion": 2.13104025,
        "meta_eccentricity": 0.00108594,
        "meta_inclination": 65.199,
        "meta_ra_of_asc_node": 78.589,
        "meta_arg_of_pericenter": 287.0596,
        "meta_mean_anomaly": 72.8655,
        "meta_ephemeris_type": 0,
        "meta_classification_type": "U",
        "meta_norad_cat_id": 57517,
        "meta_element_set_no": 999,
        "meta_rev_at_epoch": 1849,
        "meta_bstar": 0,
        "meta_mean_motion_dot": -3e-08,
        "meta_mean_motion_ddot": 0,
        "tle_line1": "1 57517U 23114A   25356.34357038 -.00000003  00000+0  00000+0 0  9992",
        "tle_line2": "2 57517  65.1990  78.5890 0010859 287.0596  72.8655  2.13104025 18497"
      },
      "geometry": {
        "type": "Point",
        "coordinates": [
          47.22092964966761,
          -48.42038448748152
        ]
      }
    },
    {
      "type": "Feature",
      "properties": {
        "norad_id": 63130,
        "name": "COSMOS 2584 (704K)",
        "group": "glo-ops",
        "lat": 28.28686647990299,
        "lon": 93.33455773762842,
        "alt_km": 19146.216524330044,
        "timestamp": "2025-12-23T05:02:12.292088+00:00",
        "meta_object_name": "COSMOS 2584 (704K)",
        "meta_object_id": "2025-042A",
        "meta_epoch": "2025-12-22T05:31:29.288640",
        "meta_mean_motion": 2.1310305,
        "meta_eccentricity": 0.00077501,
        "meta_inclination": 64.9809,
        "meta_ra_of_asc_node": 78.8228,
        "meta_arg_of_pericenter": 219.7586,
        "meta_mean_anomaly": 140.2275,
        "meta_ephemeris_type": 0,
        "meta_classification_type": "U",
        "meta_norad_cat_id": 63130,
        "meta_element_set_no": 999,
        "meta_rev_at_epoch": 627,
        "meta_bstar": 0,
        "meta_mean_motion_dot": -4e-08,
        "meta_mean_motion_ddot": 0,
        "tle_line1": "1 63130U 25042A   25356.23020010 -.00000004  00000+0  00000+0 0  9998",
        "tle_line2": "2 63130  64.9809  78.8228 0007750 219.7586 140.2275  2.13103050  6274"
      },
      "geometry": {
        "type": "Point",
        "coordinates": [
          93.33455773762842,
          28.28686647990299
        ]
      }
    },
    {
      "type": "Feature",
      "properties": {
        "norad_id": 65590,
        "name": "COSMOS 2596 (708K)",
        "group": "glo-ops",
        "lat": 26.94774378295931,
        "lon": 127.21458022108705,
        "alt_km": 19160.215978454387,
        "timestamp": "2025-12-23T05:02:12.292100+00:00",
        "meta_object_name": "COSMOS 2596 (708K)",
        "meta_object_id": "2025-206B",
        "meta_epoch": "2025-12-22T03:59:43.719936",
        "meta_mean_motion": 2.1310041,
        "meta_eccentricity": 0.00140887,
        "meta_inclination": 64.7392,
        "meta_ra_of_asc_node": 321.1476,
        "meta_arg_of_pericenter": 307.2643,
        "meta_mean_anomaly": 122.2256,
        "meta_ephemeris_type": 0,
        "meta_classification_type": "U",
        "meta_norad_cat_id": 65590,
        "meta_element_set_no": 999,
        "meta_rev_at_epoch": 214,
        "meta_bstar": 0,
        "meta_mean_motion_dot": -4.3e-07,
        "meta_mean_motion_ddot": 0,
        "tle_line1": "1 65590U 25206B   25356.16647824 -.00000043  00000+0  00000+0 0  9995",
        "tle_line2": "2 65590  64.7392 321.1476 0014088 307.2643 122.2256  2.13100410  2147"
      },
      "geometry": {
        "type": "Point",
        "coordinates": [
          127.21458022108705,
          26.94774378295931
        ]
      }
    }
  ]
}